     2.10           G: GLONASS NAV DATA                     RINEX VERSION / TYPE
teqc  2015Jun23                         20220219 01:25:42UTCPGM / RUN BY / DATE
Linux 2.4.21-27.ELsmp|Opteron|gcc -static|Linux x86_64|=+   COMMENT
  2022     1    26   -1.396983861923D-09                    CORR TO SYSTEM TIME
                                                            END OF HEADER
18 22  1 27  0 15  0.0 1.051714643836D-04 9.094947017729D-13 0.000000000000D+00
    1.619453320312D+04 1.021695137024D+00-0.000000000000D+00 0.000000000000D+00
    1.601993261719D+04 1.223166465759D+00-0.000000000000D+00-3.000000000000D+00
    1.155636376953D+04-3.127738952637D+00-9.313225746155D-10 0.000000000000D+00
14 22  1 27  0 15  0.0 7.365923374891D-05 0.000000000000D+00 0.000000000000D+00
   -2.637568359375D+02-9.694967269897D-01-1.862645149231D-09 0.000000000000D+00
    1.893312597656D+04 2.131931304932D+00 3.725290298462D-09-7.000000000000D+00
   -1.709101367188D+04 2.374904632568D+00-0.000000000000D+00 0.000000000000D+00
13 22  1 27  0 15  0.0-1.753494143486D-05-0.000000000000D+00 0.000000000000D+00
   -1.115658837891D+04 1.196708679199D-01-9.313225746155D-10 0.000000000000D+00
    2.293346923828D+04 9.988689422607D-02 2.793967723846D-09-2.000000000000D+00
   -2.886479492188D+02 3.565302848816D+00-2.793967723846D-09 0.000000000000D+00
17 22  1 27  0 15  0.0 4.961676895618D-04 2.728484105319D-12 0.000000000000D+00
    1.139575585938D+04-1.989831924438D-01-1.862645149231D-09 0.000000000000D+00
    2.220662060547D+04-7.154150009155D-01 1.862645149231D-09 4.000000000000D+00
   -5.159753906250D+03-3.511800765991D+00-9.313225746155D-10 0.000000000000D+00
24 22  1 27  0 15  0.0 7.744319736958D-05 1.818989403546D-12 0.000000000000D+00
   -4.551171875000D+02-1.322031974792D+00-1.862645149231D-09 0.000000000000D+00
    1.650583740234D+04-2.316349029541D+00 3.725290298462D-09 2.000000000000D+00
   -1.941626708984D+04-1.936729431152D+00 0.000000000000D+00 0.000000000000D+00
 2 22  1 27  0 15  0.0 5.077719688416D-04 9.094947017729D-13 3.900000000000D+02
   -1.055400244141D+04-2.841996192932D+00 9.313225746155D-10 0.000000000000D+00
    1.026528076172D+04 1.934795379639D-01-0.000000000000D+00-4.000000000000D+00
    2.085172216797D+04-1.542666435242D+00-2.793967723846D-09 0.000000000000D+00
18 22  1 27  0 45  0.0 1.051751896739D-04 9.094947017729D-13 1.800000000000D+03
    1.775412353516D+04 6.676340103149D-01-9.313225746155D-10 0.000000000000D+00
    1.750172119141D+04 4.304847717285D-01 0.000000000000D+00-3.000000000000D+00
    5.553884277344D+03-3.498560905457D+00-9.313225746155D-10 0.000000000000D+00
 2 22  1 27  0 45  0.0 5.077738314867D-04 9.094947017729D-13 1.800000000000D+03
   -1.522649658203D+04-2.308931350708D+00 9.313225746155D-10 0.000000000000D+00
    1.093241455078D+04 5.205097198486D-01 0.000000000000D+00-4.000000000000D+00
    1.730596142578D+04-2.371757507324D+00-2.793967723846D-09 0.000000000000D+00
13 22  1 27  0 45  0.0-1.753587275743D-05-0.000000000000D+00 1.800000000000D+03
   -1.064821337891D+04 4.054403305054D-01-0.000000000000D+00 0.000000000000D+00
    2.236443603516D+04-7.415790557861D-01 1.862645149231D-09-2.000000000000D+00
    6.057073242188D+03 3.439663887024D+00-2.793967723846D-09 0.000000000000D+00
14 22  1 27  0 45  0.0 7.366016507149D-05 0.000000000000D+00 1.800000000000D+03
   -1.517528808594D+03-4.391107559204D-01-9.313225746155D-10 0.000000000000D+00
    2.234593164062D+04 1.617634773254D+00 3.725290298462D-09-7.000000000000D+00
   -1.221070751953D+04 3.012433052063D+00-9.313225746155D-10 0.000000000000D+00
17 22  1 27  0 45  0.0 4.961732774973D-04 2.728484105319D-12 1.800000000000D+03
    1.047780273438D+04-8.415927886963D-01-1.862645149231D-09 0.000000000000D+00
    2.035515332031D+04-1.303140640259D+00 2.793967723846D-09 4.000000000000D+00
   -1.119911669922D+04-3.154906272888D+00-0.000000000000D+00 0.000000000000D+00
24 22  1 27  0 45  0.0 7.744599133730D-05 1.818989403546D-12 1.800000000000D+03
   -3.352182617188D+03-1.883355140686D+00-9.313225746155D-10 0.000000000000D+00
    1.223600830078D+04-2.379201889038D+00 3.725290298462D-09 2.000000000000D+00
   -2.210492138672D+04-1.031213760376D+00 9.313225746155D-10 0.000000000000D+00
18 22  1 27  1 15  0.0 1.051779836416D-04 9.094947017729D-13 3.600000000000D+03
    1.845503271484D+04 7.669353485107D-02-9.313225746155D-10 0.000000000000D+00
    1.762916943359D+04-2.637186050415D-01 1.862645149231D-09-3.000000000000D+00
   -8.763911132812D+02-3.599967002869D+00-9.313225746155D-10 0.000000000000D+00
 2 22  1 27  1 15  0.0 5.077766254544D-04 9.094947017729D-13 3.600000000000D+03
   -1.874494921875D+04-1.574863433838D+00 9.313225746155D-10 0.000000000000D+00
    1.201861474609D+04 6.479063034058D-01 0.000000000000D+00-4.000000000000D+00
    1.242288134766D+04-3.018830299377D+00-2.793967723846D-09 0.000000000000D+00
13 22  1 27  1 15  0.0-1.753680408001D-05-0.000000000000D+00 3.600000000000D+03
   -9.845726074219D+03 4.448623657227D-01 0.000000000000D+00 0.000000000000D+00
    2.026469580078D+04-1.581440925598D+00 9.313225746155D-10-2.000000000000D+00
    1.193389941406D+04 3.047656059265D+00-3.725290298462D-09 0.000000000000D+00
14 22  1 27  1 15  0.0 7.366109639406D-05 0.000000000000D+00 3.600000000000D+03
   -1.928030761719D+03-4.691410064697D-02-0.000000000000D+00 0.000000000000D+00
    2.462406591797D+04 8.836355209351D-01 3.725290298462D-09-7.000000000000D+00
   -6.386397949219D+03 3.416996955872D+00-1.862645149231D-09 0.000000000000D+00
15 22  1 27  1 15  0.0 9.862519800663D-05-0.000000000000D+00 3.600000000000D+03
    6.813254394531D+03-4.966926574707D-01-9.313225746155D-10 0.000000000000D+00
    1.421693652344D+04 2.702340126038D+00 3.725290298462D-09 0.000000000000D+00
   -2.003752392578D+04 1.747665405273D+00 0.000000000000D+00 0.000000000000D+00
17 22  1 27  1 15  0.0 4.961788654327D-04 2.728484105319D-12 3.600000000000D+03
    8.323745117188D+03-1.554112434387D+00-9.313225746155D-10 0.000000000000D+00
    1.767111230469D+04-1.632698059082D+00 3.725290298462D-09 4.000000000000D+00
   -1.637028710938D+04-2.553442001343D+00 0.000000000000D+00 0.000000000000D+00
24 22  1 27  1 15  0.0 7.744878530502D-05 1.818989403546D-12 3.600000000000D+03
   -7.154285644531D+03-2.310455322266D+00-0.000000000000D+00 0.000000000000D+00
    8.106683105469D+03-2.166905403137D+00 2.793967723846D-09 2.000000000000D+00
   -2.308058300781D+04-4.581642150879D-02 9.313225746155D-10 0.000000000000D+00
 3 22  1 27  1 15  0.0 5.059503018856D-05 9.094947017729D-13 4.950000000000D+03
   -2.217178710938D+03-2.909282684326D+00 0.000000000000D+00 0.000000000000D+00
    1.191184033203D+04 9.741468429565D-01-0.000000000000D+00 5.000000000000D+00
    2.248031982422D+04-8.099575042725D-01-2.793967723846D-09 0.000000000000D+00
18 22  1 27  1 45  0.0 1.051807776093D-04 9.094947017729D-13 5.400000000000D+03
    1.793183349609D+04-6.771926879883D-01-9.313225746155D-10 0.000000000000D+00
    1.666883837891D+04-7.649402618408D-01 2.793967723846D-09-3.000000000000D+00
   -7.239071777344D+03-3.423881530762D+00-0.000000000000D+00 0.000000000000D+00
 2 22  1 27  1 45  0.0 5.077784880996D-04 0.000000000000D+00 5.400000000000D+03
   -2.083693017578D+04-7.427816390991D-01 9.313225746155D-10 0.000000000000D+00
    1.311578955078D+04 5.283222198486D-01 9.313225746155D-10-4.000000000000D+00
    6.578210937500D+03-3.433104515076D+00-1.862645149231D-09 0.000000000000D+00
 3 22  1 27  1 45  0.0 5.059596151114D-05 0.000000000000D+00 5.400000000000D+03
   -7.080414550781D+03-2.454861640930D+00 0.000000000000D+00 0.000000000000D+00
    1.394314111328D+04 1.251399040222D+00-0.000000000000D+00 5.000000000000D+00
    2.017487939453D+04-1.735285758972D+00-2.793967723846D-09 0.000000000000D+00
13 22  1 27  1 45  0.0-1.753773540258D-05-0.000000000000D+00 5.400000000000D+03
   -9.187544921875D+03 2.509956359863D-01 0.000000000000D+00 0.000000000000D+00
    1.674124902344D+04-2.305181503296D+00 0.000000000000D+00-2.000000000000D+00
    1.688654980469D+04 2.419462203979D+00-2.793967723846D-09 0.000000000000D+00
14 22  1 27  1 45  0.0 7.366202771664D-05 0.000000000000D+00 5.400000000000D+03
   -1.812057128906D+03 1.372213363647D-01 0.000000000000D+00 0.000000000000D+00
    2.544890966797D+04 2.017211914062D-02 3.725290298462D-09-7.000000000000D+00
   -6.843212890625D+01 3.557393074036D+00-2.793967723846D-09 0.000000000000D+00
15 22  1 27  1 45  0.0 9.862519800663D-05-0.000000000000D+00 5.400000000000D+03
    6.324894042969D+03-6.449604034424D-02-0.000000000000D+00 0.000000000000D+00
    1.868367333984D+04 2.216591835022D+00 4.656612873077D-09 0.000000000000D+00
   -1.615680126953D+04 2.536203384399D+00-0.000000000000D+00 0.000000000000D+00
17 22  1 27  1 45  0.0 4.961844533682D-04 2.728484105319D-12 5.400000000000D+03
    4.909913085938D+03-2.221870422363D+00-0.000000000000D+00 0.000000000000D+00
    1.464741259766D+04-1.680572509766D+00 3.725290298462D-09 4.000000000000D+00
   -2.027253466797D+04-1.754207611084D+00 0.000000000000D+00 0.000000000000D+00
18 22  1 27  2 15  0.0 1.051835715771D-04 9.094947017729D-13 7.200000000000D+03
    1.598163574219D+04-1.489789962769D+00-0.000000000000D+00 0.000000000000D+00
    1.502775830078D+04-1.013717651367D+00 3.725290298462D-09-3.000000000000D+00
   -1.304335058594D+04-2.983458518982D+00-0.000000000000D+00 0.000000000000D+00
 2 22  1 27  2 15  0.0 5.077803507447D-04 0.000000000000D+00 7.200000000000D+03
   -2.142992529297D+04 7.122421264648D-02 9.313225746155D-10 0.000000000000D+00
    1.376945996094D+04 1.584224700928D-01 9.313225746155D-10-4.000000000000D+00
    2.235849609375D+02-3.581611633301D+00-9.313225746155D-10 0.000000000000D+00
 3 22  1 27  2 15  0.0 5.059596151114D-05 0.000000000000D+00 7.200000000000D+03
   -1.093845654297D+04-1.807672500610D+00 9.313225746155D-10 0.000000000000D+00
    1.628291308594D+04 1.306632995605D+00 0.000000000000D+00 5.000000000000D+00
    1.631301904297D+04-2.528066635132D+00-2.793967723846D-09 0.000000000000D+00
